{
  "links" : {
    "next" : "https://api.nasa.gov/neo/rest/v1/feed?start_date=2005-08-23&end_date=2005-08-23&detailed=true&api_key=t0TVs3DtDT2H8Oy2Zy8m2eVrNsAVKAexjcZXUckd",
    "prev" : "https://api.nasa.gov/neo/rest/v1/feed?start_date=2005-08-21&end_date=2005-08-21&detailed=true&api_key=t0TVs3DtDT2H8Oy2Zy8m2eVrNsAVKAexjcZXUckd",
    "self" : "https://api.nasa.gov/neo/rest/v1/feed?start_date=2005-08-22&end_date=2005-08-22&detailed=true&api_key=t0TVs3DtDT2H8Oy2Zy8m2eVrNsAVKAexjcZXUckd"
  },
  "element_count" : 4,
  "near_earth_objects" : {
    "2005-08-22" : [ {
      "links" : {
        "self" : "https://api.nasa.gov/neo/rest/v1/neo/3020944?api_key=t0TVs3DtDT2H8Oy2Zy8m2eVrNsAVKAexjcZXUckd"
      },
      "neo_reference_id" : "3020944",
      "name" : "(1999 HD1)",
      "nasa_jpl_url" : "http://ssd.jpl.nasa.gov/sbdb.cgi?sstr=3020944",
      "absolute_magnitude_h" : 20.4,
      "estimated_diameter" : {
        "kilometers" : {
          "estimated_diameter_min" : 0.2210828104,
          "estimated_diameter_max" : 0.4943561926
        },
        "meters" : {
          "estimated_diameter_min" : 221.0828103591,
          "estimated_diameter_max" : 494.3561926196
        },
        "miles" : {
          "estimated_diameter_min" : 0.137374447,
          "estimated_diameter_max" : 0.3071786018
        },
        "feet" : {
          "estimated_diameter_min" : 725.3373275385,
          "estimated_diameter_max" : 1621.9035709942
        }
      },
      "is_potentially_hazardous_asteroid" : false,
      "close_approach_data" : [ {
        "close_approach_date" : "2005-08-22",
        "epoch_date_close_approach" : 1124694000000,
        "relative_velocity" : {
          "kilometers_per_second" : "15.1319325847",
          "kilometers_per_hour" : "54474.9573049283",
          "miles_per_hour" : "33848.6199987206"
        },
        "miss_distance" : {
          "astronomical" : "0.3999900578",
          "lunar" : "155.5961303711",
          "kilometers" : "59837660",
          "miles" : "37181400"
        },
        "orbiting_body" : "Earth"
      } ],
      "orbital_data" : {
        "orbit_id" : "26",
        "orbit_determination_date" : "2017-05-03 06:18:20",
        "orbit_uncertainty" : "0",
        "minimum_orbit_intersection" : ".21666",
        "jupiter_tisserand_invariant" : "5.404",
        "epoch_osculation" : "2457800.5",
        "eccentricity" : ".4178181172361275",
        "semi_major_axis" : "1.131440479719307",
        "inclination" : "18.21702155990433",
        "ascending_node_longitude" : "209.8830277942958",
        "orbital_period" : "439.588169244522",
        "perihelion_distance" : ".6587041487182451",
        "perihelion_argument" : "147.9513871391732",
        "aphelion_distance" : "1.604176810720368",
        "perihelion_time" : "2458014.584475772073",
        "mean_anomaly" : "184.6758746706045",
        "mean_motion" : ".8189483366185615",
        "equinox" : "J2000"
      }
    }, {
      "links" : {
        "self" : "https://api.nasa.gov/neo/rest/v1/neo/3545713?api_key=t0TVs3DtDT2H8Oy2Zy8m2eVrNsAVKAexjcZXUckd"
      },
      "neo_reference_id" : "3545713",
      "name" : "(2010 RJ43)",
      "nasa_jpl_url" : "http://ssd.jpl.nasa.gov/sbdb.cgi?sstr=3545713",
      "absolute_magnitude_h" : 23.7,
      "estimated_diameter" : {
        "kilometers" : {
          "estimated_diameter_min" : 0.0483676488,
          "estimated_diameter_max" : 0.1081533507
        },
        "meters" : {
          "estimated_diameter_min" : 48.3676488219,
          "estimated_diameter_max" : 108.1533506775
        },
        "miles" : {
          "estimated_diameter_min" : 0.0300542543,
          "estimated_diameter_max" : 0.0672033557
        },
        "feet" : {
          "estimated_diameter_min" : 158.6865169607,
          "estimated_diameter_max" : 354.8338390368
        }
      },
      "is_potentially_hazardous_asteroid" : false,
      "close_approach_data" : [ {
        "close_approach_date" : "2005-08-22",
        "epoch_date_close_approach" : 1124694000000,
        "relative_velocity" : {
          "kilometers_per_second" : "14.844795467",
          "kilometers_per_hour" : "53441.2636810229",
          "miles_per_hour" : "33206.3229800222"
        },
        "miss_distance" : {
          "astronomical" : "0.0207253259",
          "lunar" : "8.0621519089",
          "kilometers" : "3100464.75",
          "miles" : "1926539.5"
        },
        "orbiting_body" : "Earth"
      } ],
      "orbital_data" : {
        "orbit_id" : "13",
        "orbit_determination_date" : "2017-04-06 08:56:46",
        "orbit_uncertainty" : "2",
        "minimum_orbit_intersection" : ".0208383",
        "jupiter_tisserand_invariant" : "6.596",
        "epoch_osculation" : "2458000.5",
        "eccentricity" : ".4959469590723521",
        "semi_major_axis" : ".8840846594929069",
        "inclination" : "6.881150534531995",
        "ascending_node_longitude" : "319.5386118929637",
        "orbital_period" : "303.6261754284594",
        "perihelion_distance" : ".4456255610548839",
        "perihelion_argument" : "236.740951715271",
        "aphelion_distance" : "1.32254375793093",
        "perihelion_time" : "2458093.062249332139",
        "mean_anomaly" : "250.2518542330961",
        "mean_motion" : "1.185668526410772",
        "equinox" : "J2000"
      }
    }, {
      "links" : {
        "self" : "https://api.nasa.gov/neo/rest/v1/neo/2488474?api_key=t0TVs3DtDT2H8Oy2Zy8m2eVrNsAVKAexjcZXUckd"
      },
      "neo_reference_id" : "2488474",
      "name" : "488474 (1999 HD1)",
      "nasa_jpl_url" : "http://ssd.jpl.nasa.gov/sbdb.cgi?sstr=2488474",
      "absolute_magnitude_h" : 20.4,
      "estimated_diameter" : {
        "kilometers" : {
          "estimated_diameter_min" : 0.2210828104,
          "estimated_diameter_max" : 0.4943561926
        },
        "meters" : {
          "estimated_diameter_min" : 221.0828103591,
          "estimated_diameter_max" : 494.3561926196
        },
        "miles" : {
          "estimated_diameter_min" : 0.137374447,
          "estimated_diameter_max" : 0.3071786018
        },
        "feet" : {
          "estimated_diameter_min" : 725.3373275385,
          "estimated_diameter_max" : 1621.9035709942
        }
      },
      "is_potentially_hazardous_asteroid" : false,
      "close_approach_data" : [ {
        "close_approach_date" : "2005-08-22",
        "epoch_date_close_approach" : 1124694000000,
        "relative_velocity" : {
          "kilometers_per_second" : "15.1319270816",
          "kilometers_per_hour" : "54474.937493697",
          "miles_per_hour" : "33848.6076887919"
        },
        "miss_distance" : {
          "astronomical" : "0.3999900085",
          "lunar" : "155.5961151123",
          "kilometers" : "59837656",
          "miles" : "37181396"
        },
        "orbiting_body" : "Earth"
      } ],
      "orbital_data" : {
        "orbit_id" : "27",
        "orbit_determination_date" : "2017-05-15 19:01:15",
        "orbit_uncertainty" : "0",
        "minimum_orbit_intersection" : ".216856",
        "jupiter_tisserand_invariant" : "5.404",
        "epoch_osculation" : "2458000.5",
        "eccentricity" : ".4178175551409867",
        "semi_major_axis" : "1.131423207151506",
        "inclination" : "18.21763751113307",
        "ascending_node_longitude" : "209.8820481774343",
        "orbital_period" : "439.5781031549456",
        "perihelion_distance" : ".6586947289096898",
        "perihelion_argument" : "147.9578426255144",
        "aphelion_distance" : "1.604151685393323",
        "perihelion_time" : "2458014.591635245987",
        "mean_anomaly" : "348.459414488244",
        "mean_motion" : ".8189670900716014",
        "equinox" : "J2000"
      }
    }, {
      "links" : {
        "self" : "https://api.nasa.gov/neo/rest/v1/neo/3656925?api_key=t0TVs3DtDT2H8Oy2Zy8m2eVrNsAVKAexjcZXUckd"
      },
      "neo_reference_id" : "3656925",
      "name" : "(2014 BR8)",
      "nasa_jpl_url" : "http://ssd.jpl.nasa.gov/sbdb.cgi?sstr=3656925",
      "absolute_magnitude_h" : 21.7,
      "estimated_diameter" : {
        "kilometers" : {
          "estimated_diameter_min" : 0.1214940408,
          "estimated_diameter_max" : 0.2716689341
        },
        "meters" : {
          "estimated_diameter_min" : 121.4940407996,
          "estimated_diameter_max" : 271.6689340891
        },
        "miles" : {
          "estimated_diameter_min" : 0.0754928736,
          "estimated_diameter_max" : 0.1688071972
        },
        "feet" : {
          "estimated_diameter_min" : 398.6025088171,
          "estimated_diameter_max" : 891.3023057169
        }
      },
      "is_potentially_hazardous_asteroid" : false,
      "close_approach_data" : [ {
        "close_approach_date" : "2005-08-22",
        "epoch_date_close_approach" : 1124694000000,
        "relative_velocity" : {
          "kilometers_per_second" : "15.4988361566",
          "kilometers_per_hour" : "55795.8101636297",
          "miles_per_hour" : "34669.3465986176"
        },
        "miss_distance" : {
          "astronomical" : "0.3326328498",
          "lunar" : "129.3941802979",
          "kilometers" : "49761164",
          "miles" : "30920154"
        },
        "orbiting_body" : "Earth"
      } ],
      "orbital_data" : {
        "orbit_id" : "28",
        "orbit_determination_date" : "2017-08-10 06:17:41",
        "orbit_uncertainty" : "2",
        "minimum_orbit_intersection" : ".0536154",
        "jupiter_tisserand_invariant" : "5.164",
        "epoch_osculation" : "2458000.5",
        "eccentricity" : ".2391464963928471",
        "semi_major_axis" : "1.219918406119161",
        "inclination" : "17.1434789112377",
        "ascending_node_longitude" : "304.7979481900595",
        "orbital_period" : "492.146728878308",
        "perihelion_distance" : ".9281791934106173",
        "perihelion_argument" : "114.2865096863014",
        "aphelion_distance" : "1.511657618827705",
        "perihelion_time" : "2458101.053529265232",
        "mean_anomaly" : "286.4461827918915",
        "mean_motion" : ".7314891654781603",
        "equinox" : "J2000"
      }
    } ]
  }
}